{"features":[{"geometry":{"coordinates":[-0.421065,43.267417],"type":"Point"},"id":"carta-producer-camin-larredya","properties":{"carta_entity_id":"producer:camin-larredya","feature_type":"producer_base","geometry_id":"geom:bearn-producer-camin-larredya","name":"Camin Larredya","native_route":"#/producer/camin-larredya","place_label":"Jurançon · Chapelle de Rousse","placement_note":"Production base · Jurançon · Chapelle de Rousse","precision":"address","representation_label":"Production or cellar base; not vineyard holdings","source_feature_id":"carta-producer-camin-larredya","source_ids":["source:camin-larredya-contact-06","source:api-adresse-gouv-fr"],"spatial_assertion_id":"spatial:camin-larredya-base-06"},"type":"Feature"},{"geometry":{"coordinates":[-0.602504,43.3129],"type":"Point"},"id":"carta-producer-clos-uroulat","properties":{"carta_entity_id":"producer:clos-uroulat","feature_type":"producer_base","geometry_id":"geom:bearn-producer-clos-uroulat","name":"Clos Uroulat","native_route":"#/producer/clos-uroulat","place_label":"Monein · Quartier Trouilh","placement_note":"Production base · Monein · Quartier Trouilh","precision":"address","representation_label":"Production or cellar base; not vineyard holdings","source_feature_id":"carta-producer-clos-uroulat","source_ids":["source:clos-uroulat-contact-06","source:tourisme64-clos-uroulat-06"],"spatial_assertion_id":"spatial:clos-uroulat-monein-base-06"},"type":"Feature"},{"geometry":{"coordinates":[-0.614827,43.313922],"type":"Point"},"id":"carta-producer-domaine-cauhape","properties":{"carta_entity_id":"producer:domaine-cauhape","feature_type":"producer_base","geometry_id":"geom:bearn-producer-cauhape","name":"Domaine Cauhapé","native_route":"#/producer/domaine-cauhape","place_label":"Monein","placement_note":"Approximate location · Monein","precision":"approximate","representation_label":"Production or cellar base; not vineyard holdings","source_feature_id":"carta-producer-domaine-cauhape","source_ids":["source:cauhape-domain-06","source:cirkwi-cauhape-coordinate-06"],"spatial_assertion_id":"spatial:cauhape-monein-base-06"},"type":"Feature"},{"geometry":{"coordinates":[5.772711,46.901897],"type":"Point"},"id":"carta-producer-domaine-de-la-tournelle","properties":{"carta_entity_id":"producer:domaine-de-la-tournelle","feature_type":"producer_base","geometry_id":"geom:jura-producer-tournelle","name":"Domaine de la Tournelle","native_route":"#/producer/domaine-de-la-tournelle","place_label":"Arbois","placement_note":"Production base · Arbois","precision":"address","representation_label":"Production or cellar base; not vineyard holdings","source_feature_id":"carta-producer-domaine-de-la-tournelle","source_ids":["source:tournelle-contact","source:api-adresse-gouv-fr"],"spatial_assertion_id":"spatial:tournelle-arbois-base-11"},"type":"Feature"},{"geometry":{"coordinates":[5.681,46.9325],"type":"Point"},"id":"carta-producer-domaine-de-saint-pierre-jura","properties":{"carta_entity_id":"producer:domaine-de-saint-pierre-jura","feature_type":"producer_base","geometry_id":"geom:jura-producer-saint-pierre","name":"Domaine de Saint Pierre","native_route":"#/producer/domaine-de-saint-pierre-jura","place_label":"Mathenay","placement_note":"Approximate location · Mathenay","precision":"municipality","representation_label":"Production or cellar base; not vineyard holdings","source_feature_id":"carta-producer-domaine-de-saint-pierre-jura","source_ids":["source:saint-pierre-mfw","source:geo-api-communes-gouv-fr"],"spatial_assertion_id":"spatial:saint-pierre-mathenay-base-11"},"type":"Feature"},{"geometry":{"coordinates":[-0.430003,43.29191],"type":"Point"},"id":"carta-producer-domaine-de-souch","properties":{"carta_entity_id":"producer:domaine-de-souch","feature_type":"producer_base","geometry_id":"geom:bearn-producer-souch","name":"Domaine de Souch","native_route":"#/producer/domaine-de-souch","place_label":"Laroin","placement_note":"Production base · Laroin","precision":"address","representation_label":"Production or cellar base; not vineyard holdings","source_feature_id":"carta-producer-domaine-de-souch","source_ids":["source:vignerons-jurancon-souch-06","source:api-adresse-gouv-fr"],"spatial_assertion_id":"spatial:souch-laroin-base-06"},"type":"Feature"},{"geometry":{"coordinates":[5.477513,46.588736],"type":"Point"},"id":"carta-producer-domaine-labet","properties":{"carta_entity_id":"producer:domaine-labet","feature_type":"producer_base","geometry_id":"geom:jura-producer-labet","name":"Domaine Labet","native_route":"#/producer/domaine-labet","place_label":"Rotalier","placement_note":"Production base · Rotalier","precision":"address","representation_label":"Production or cellar base; not vineyard holdings","source_feature_id":"carta-producer-domaine-labet","source_ids":["source:rotalier-viticultural-domains","source:api-adresse-gouv-fr"],"spatial_assertion_id":"spatial:labet-rotalier-base-11"},"type":"Feature"},{"geometry":{"coordinates":[5.761972,46.883327],"type":"Point"},"id":"carta-producer-maison-pierre-overnoy","properties":{"carta_entity_id":"producer:maison-pierre-overnoy","feature_type":"producer_base","geometry_id":"geom:jura-producer-overnoy","name":"Maison Pierre Overnoy / Emmanuel Houillon","native_route":"#/producer/maison-pierre-overnoy","place_label":"Pupillin","placement_note":"Production base · Pupillin","precision":"address","representation_label":"Production or cellar base; not vineyard holdings","source_feature_id":"carta-producer-maison-pierre-overnoy","source_ids":["source:annuaire-entreprises-overnoy","source:api-adresse-gouv-fr"],"spatial_assertion_id":"spatial:overnoy-pupillin-base-11"},"type":"Feature"}],"type":"FeatureCollection"}
