{"features":[{"geometry":{"coordinates":[[2.55683,47.49954],[2.57564,47.48589],[2.57799,47.48225],[2.58481,47.4786],[2.60323,47.47321],[2.60996,47.47499],[2.61157,47.47405],[2.61131,47.47005],[2.62074,47.47296],[2.62344,47.46842],[2.62796,47.46949],[2.63947,47.45583],[2.64142,47.44581],[2.63826,47.44143],[2.64634,47.44527],[2.65308,47.44528],[2.65173,47.44987],[2.64769,47.44714],[2.64568,47.44763],[2.64607,47.45219],[2.64402,47.45401],[2.64789,47.45401],[2.65083,47.46039],[2.64365,47.47171],[2.63152,47.4809],[2.62478,47.48311],[2.60188,47.48398],[2.59042,47.48862],[2.57936,47.49954]],"type":"LineString"},"id":"terrain-contour-00200-0000","properties":{"contour_class":"intermediate","elevation_metres":200,"feature_type":"elevation_contour","representation_label":"Contour derived from the Copernicus DEM surface model; not a vineyard, parcel or legal boundary","representation_type":"derived_spatial_product","source_dataset_id":"spatial-dataset:copernicus-dem-glo30-2022-05-09","source_feature_id":"terrain-contour-00200-0000"},"type":"Feature"},{"geometry":{"coordinates":[[2.77587,47.49954],[2.77301,47.4977],[2.76762,47.49879],[2.76492,47.49677],[2.76449,47.49499],[2.76768,47.49135],[2.7649,47.48953],[2.77435,47.48791],[2.77492,47.48042],[2.77207,47.47769],[2.7784,47.47441],[2.77955,47.47678],[2.77737,47.48042],[2.78144,47.48498],[2.7842,47.49954]],"type":"LineString"},"id":"terrain-contour-00200-0001","properties":{"contour_class":"intermediate","elevation_metres":200,"feature_type":"elevation_contour","representation_label":"Contour derived from the Copernicus DEM surface model; not a vineyard, parcel or legal boundary","representation_type":"derived_spatial_product","source_dataset_id":"spatial-dataset:copernicus-dem-glo30-2022-05-09","source_feature_id":"terrain-contour-00200-0001"},"type":"Feature"},{"geometry":{"coordinates":[[2.80516,47.49954],[2.80482,47.4959],[2.81187,47.49044],[2.81038,47.48407],[2.81314,47.47678],[2.80975,47.47132],[2.81747,47.47104],[2.81801,47.46585],[2.82556,47.45971],[2.82825,47.46376],[2.83356,47.46403],[2.83357,47.4613],[2.83762,47.45674],[2.83499,47.4553],[2.83095,47.45679],[2.82296,47.44945],[2.82955,47.44854],[2.83137,47.44398],[2.83499,47.44168],[2.84847,47.44375],[2.85012,47.44307],[2.8493,47.44034],[2.85096,47.43852],[2.85386,47.43791],[2.85655,47.44151],[2.86069,47.43669],[2.85925,47.43458],[2.84577,47.43219],[2.82805,47.43122],[2.82301,47.42667],[2.83095,47.42673],[2.83769,47.42886],[2.83931,47.42667],[2.83634,47.42623],[2.83499,47.42233],[2.83903,47.42355],[2.84514,47.42302],[2.84232,47.41573],[2.84855,47.41299],[2.84434,47.40205],[2.8516,47.39566],[2.84951,47.39384],[2.84173,47.39206],[2.84042,47.39019],[2.85251,47.3898],[2.86059,47.38777],[2.86194,47.38139],[2.86758,47.37924],[2.86361,47.3765],[2.86169,47.37103],[2.86733,47.37184],[2.86925,47.37012],[2.85655,47.36099],[2.85655,47.36005],[2.86329,47.36253],[2.8663,47.3619],[2.86394,47.35643],[2.8579,47.3539],[2.85302,47.34912],[2.85116,47.34317],[2.83903,47.34204],[2.83364,47.34665],[2.82739,47.34273],[2.82556,47.33959],[2.81225,47.33725],[2.81225,47.33634],[2.82127,47.33451],[2.82017,47.3296],[2.8296,47.33174],[2.8336,47.33543],[2.83769,47.33659],[2.84173,47.33608],[2.84832,47.33269],[2.84916,47.32995],[2.84111,47.32538],[2.84953,47.3199],[2.84756,47.31533],[2.85506,47.31168],[2.85341,47.3062],[2.85817,47.30437],[2.86183,47.30071],[2.86515,47.29249],[2.87407,47.28925],[2.87548,47.28701],[2.87137,47.28405],[2.86031,47.28426],[2.8552,47.29224],[2.84847,47.28898],[2.83903,47.28966],[2.83364,47.29195],[2.8296,47.29808],[2.82286,47.29276],[2.81979,47.29523],[2.81882,47.29892],[2.81478,47.29925],[2.81315,47.29889],[2.8188,47.28975],[2.81613,47.28843],[2.81343,47.29089],[2.81074,47.28464],[2.80535,47.28543],[2.8013,47.28392],[2.79726,47.29244],[2.79292,47.29158],[2.78918,47.28374],[2.78244,47.28739],[2.77705,47.28737],[2.77662,47.28243],[2.76762,47.28357],[2.76503,47.28243],[2.76578,47.27604],[2.77031,47.27427],[2.77324,47.27512],[2.77003,47.27055],[2.77435,47.26843],[2.78109,47.27515],[2.78632,47.27329],[2.78596,47.27146],[2.78805,47.27055],[2.79187,47.26973],[2.79861,47.27068],[2.80535,47.26728],[2.82152,47.27422],[2.82152,47.26737],[2.83458,47.26689],[2.83769,47.26226],[2.84308,47.263],[2.84979,47.25775],[2.84776,47.255],[2.83856,47.25135],[2.83937,47.2486],[2.84569,47.24403],[2.84144,47.2422],[2.84075,47.24037],[2.83903,47.24086],[2.83361,47.24586],[2.83364,47.25294],[2.82556,47.2506],[2.81836,47.25592],[2.81747,47.26169],[2.81003,47.26232],[2.81037,47.25866],[2.80669,47.25517],[2.803,47.25683],[2.80265,47.26181],[2.79018,47.26049],[2.79205,47.25775],[2.78793,47.25043],[2.78287,47.24677],[2.77713,47.24494],[2.77485,47.23945],[2.76896,47.23409],[2.76357,47.23027],[2.7597,47.22939],[2.77705,47.22819],[2.79322,47.23103],[2.79509,47.23031],[2.79369,47.22756],[2.7956,47.22482],[2.78513,47.22104],[2.78109,47.22244],[2.77705,47.22191],[2.76762,47.22567],[2.76223,47.22491],[2.76197,47.22207],[2.76527,47.21932],[2.76369,47.21658],[2.76896,47.21455],[2.77435,47.21646],[2.77663,47.21475],[2.7757,47.2131],[2.76627,47.20963],[2.74266,47.21017],[2.74471,47.20796],[2.75446,47.20559],[2.75549,47.20316],[2.76239,47.20193],[2.75953,47.20038],[2.7474,47.20255],[2.74461,47.20193],[2.74591,47.2001],[2.75584,47.19644],[2.7525,47.19369],[2.75085,47.18911],[2.75697,47.19186],[2.75712,47.18454],[2.75145,47.17929],[2.74606,47.17726],[2.74067,47.17912],[2.73669,47.18362],[2.73258,47.18366],[2.72854,47.19084],[2.72456,47.18911],[2.72315,47.18541],[2.71776,47.18688],[2.71694,47.18362],[2.72917,47.17721],[2.72854,47.17617],[2.72292,47.17629],[2.7215,47.17446],[2.72945,47.16896],[2.73337,47.16164],[2.72854,47.16003],[2.7218,47.1689],[2.71641,47.16911],[2.71237,47.17345],[2.70968,47.17352],[2.70519,47.16805],[2.70915,47.1653],[2.709,47.16347],[2.70563,47.16014],[2.69993,47.16164],[2.69992,47.15431],[2.69274,47.14514],[2.69278,47.13964],[2.68698,47.13873],[2.68768,47.13506],[2.68003,47.13128],[2.67681,47.12039]],"type":"LineString"},"id":"terrain-contour-00200-0002","properties":{"contour_class":"intermediate","elevation_metres":200,"feature_type":"elevation_contour","representation_label":"Contour derived from the Copernicus DEM surface model; not a vineyard, parcel or legal boundary","representation_type":"derived_spatial_product","source_dataset_id":"spatial-dataset:copernicus-dem-glo30-2022-05-09","source_feature_id":"terrain-contour-00200-0002"},"type":"Feature"},{"geometry":{"coordinates":[[2.94542,47.46949],[2.94687,47.46949],[2.94663,47.45947],[2.94414,47.45594],[2.94265,47.46039],[2.94535,47.46312],[2.9435,47.46767],[2.94542,47.46949]],"type":"LineString"},"id":"terrain-contour-00200-0003","properties":{"contour_class":"intermediate","elevation_metres":200,"feature_type":"elevation_contour","representation_label":"Contour derived from the Copernicus DEM surface model; not a vineyard, parcel or legal boundary","representation_type":"derived_spatial_product","source_dataset_id":"spatial-dataset:copernicus-dem-glo30-2022-05-09","source_feature_id":"terrain-contour-00200-0003"},"type":"Feature"},{"geometry":{"coordinates":[[2.83634,47.43877],[2.83157,47.4376],[2.83499,47.43387],[2.83963,47.43669],[2.83634,47.43877]],"type":"LineString"},"id":"terrain-contour-00200-0004","properties":{"contour_class":"intermediate","elevation_metres":200,"feature_type":"elevation_contour","representation_label":"Contour derived from the Copernicus DEM surface model; not a vineyard, parcel or legal boundary","representation_type":"derived_spatial_product","source_dataset_id":"spatial-dataset:copernicus-dem-glo30-2022-05-09","source_feature_id":"terrain-contour-00200-0004"},"type":"Feature"},{"geometry":{"coordinates":[[2.98995,47.41564],[2.97109,47.41182],[2.96704,47.41364],[2.96704,47.41674],[2.97484,47.41846],[2.97648,47.42006],[2.96704,47.42004],[2.96435,47.42172],[2.96435,47.42429],[2.97109,47.42435],[2.97266,47.42667],[2.96704,47.42992],[2.963,47.42893],[2.96165,47.42984],[2.96218,47.43305],[2.96697,47.43852],[2.96223,47.44216],[2.96194,47.45036],[2.95908,47.45401],[2.963,47.46085],[2.97109,47.46093],[2.97648,47.45738],[2.97965,47.45765],[2.97243,47.46392],[2.963,47.46552],[2.95513,47.46403],[2.95507,47.46767],[2.95761,47.47102],[2.9657,47.47365],[2.96741,47.47587],[2.95761,47.47688],[2.95886,47.48316],[2.95385,47.49044],[2.95611,47.49226],[2.95087,47.4953],[2.94414,47.495],[2.94084,47.49954]],"type":"LineString"},"id":"terrain-contour-00200-0005","properties":{"contour_class":"intermediate","elevation_metres":200,"feature_type":"elevation_contour","representation_label":"Contour derived from the Copernicus DEM surface model; not a vineyard, parcel or legal boundary","representation_type":"derived_spatial_product","source_dataset_id":"spatial-dataset:copernicus-dem-glo30-2022-05-09","source_feature_id":"terrain-contour-00200-0005"},"type":"Feature"},{"geometry":{"coordinates":[[2.98995,47.39043],[2.98408,47.39019],[2.98052,47.38657],[2.97515,47.38745],[2.97191,47.39201],[2.9709,47.39749],[2.98725,47.39804],[2.98991,47.39931],[2.98591,47.40312],[2.97648,47.40198],[2.96944,47.40387],[2.97378,47.40572],[2.98995,47.40555]],"type":"LineString"},"id":"terrain-contour-00200-0006","properties":{"contour_class":"intermediate","elevation_metres":200,"feature_type":"elevation_contour","representation_label":"Contour derived from the Copernicus DEM surface model; not a vineyard, parcel or legal boundary","representation_type":"derived_spatial_product","source_dataset_id":"spatial-dataset:copernicus-dem-glo30-2022-05-09","source_feature_id":"terrain-contour-00200-0006"},"type":"Feature"},{"geometry":{"coordinates":[[2.89194,47.34182],[2.90371,47.34046],[2.90581,47.33817],[2.90433,47.33543],[2.89967,47.33308],[2.88786,47.3336],[2.88798,47.33817],[2.89194,47.34182]],"type":"LineString"},"id":"terrain-contour-00200-0007","properties":{"contour_class":"intermediate","elevation_metres":200,"feature_type":"elevation_contour","representation_label":"Contour derived from the Copernicus DEM surface model; not a vineyard, parcel or legal boundary","representation_type":"derived_spatial_product","source_dataset_id":"spatial-dataset:copernicus-dem-glo30-2022-05-09","source_feature_id":"terrain-contour-00200-0007"},"type":"Feature"},{"geometry":{"coordinates":[[2.98995,47.30018],[2.98343,47.29706],[2.97513,47.28607],[2.97243,47.29002],[2.96839,47.28861],[2.96165,47.28981],[2.95896,47.29483],[2.95674,47.29432],[2.95483,47.29066],[2.95087,47.29001],[2.94914,47.29158],[2.94942,47.29523],[2.94009,47.29592],[2.93443,47.2998],[2.9325,47.30528],[2.94154,47.3062],[2.9347,47.31108],[2.92931,47.31059],[2.92879,47.31168],[2.93336,47.31403],[2.94875,47.31716],[2.94749,47.3199],[2.94161,47.32173],[2.94295,47.32447],[2.95697,47.32538],[2.95497,47.32812],[2.94689,47.33086],[2.95416,47.33725],[2.9518,47.34821],[2.95357,47.3519],[2.95761,47.35203],[2.96403,47.34912],[2.96584,47.33725],[2.96319,47.33269],[2.96839,47.33158],[2.97109,47.32939],[2.97843,47.3199],[2.97934,47.31625],[2.98187,47.31578],[2.98725,47.31845],[2.98995,47.31515]],"type":"LineString"},"id":"terrain-contour-00200-0008","properties":{"contour_class":"intermediate","elevation_metres":200,"feature_type":"elevation_contour","representation_label":"Contour derived from the Copernicus DEM surface model; not a vineyard, parcel or legal boundary","representation_type":"derived_spatial_product","source_dataset_id":"spatial-dataset:copernicus-dem-glo30-2022-05-09","source_feature_id":"terrain-contour-00200-0008"},"type":"Feature"},{"geometry":{"coordinates":[[2.87138,47.27604],[2.87407,47.27638],[2.87811,47.27431],[2.88084,47.27146],[2.87963,47.26964],[2.87407,47.27094],[2.87138,47.27604]],"type":"LineString"},"id":"terrain-contour-00200-0009","properties":{"contour_class":"intermediate","elevation_metres":200,"feature_type":"elevation_contour","representation_label":"Contour derived from the Copernicus DEM surface model; not a vineyard, parcel or legal boundary","representation_type":"derived_spatial_product","source_dataset_id":"spatial-dataset:copernicus-dem-glo30-2022-05-09","source_feature_id":"terrain-contour-00200-0009"},"type":"Feature"},{"geometry":{"coordinates":[[2.83668,47.27512],[2.83948,47.27512],[2.84079,47.27329],[2.83634,47.26889],[2.83668,47.27512]],"type":"LineString"},"id":"terrain-contour-00200-0010","properties":{"contour_class":"intermediate","elevation_metres":200,"feature_type":"elevation_contour","representation_label":"Contour derived from the Copernicus DEM surface model; not a vineyard, parcel or legal boundary","representation_type":"derived_spatial_product","source_dataset_id":"spatial-dataset:copernicus-dem-glo30-2022-05-09","source_feature_id":"terrain-contour-00200-0010"},"type":"Feature"},{"geometry":{"coordinates":[[2.86258,47.26781],[2.86698,47.26689],[2.86559,47.26049],[2.87541,47.26103],[2.87946,47.26324],[2.88621,47.255],[2.88405,47.25226],[2.87811,47.25022],[2.85948,47.25043],[2.85567,47.24769],[2.85925,47.24293],[2.8579,47.24018],[2.85579,47.24128],[2.85284,47.2486],[2.8579,47.25088],[2.85884,47.25683],[2.86311,47.25958],[2.85401,47.26324],[2.85493,47.26506],[2.86258,47.26781]],"type":"LineString"},"id":"terrain-contour-00200-0011","properties":{"contour_class":"intermediate","elevation_metres":200,"feature_type":"elevation_contour","representation_label":"Contour derived from the Copernicus DEM surface model; not a vineyard, parcel or legal boundary","representation_type":"derived_spatial_product","source_dataset_id":"spatial-dataset:copernicus-dem-glo30-2022-05-09","source_feature_id":"terrain-contour-00200-0011"},"type":"Feature"},{"geometry":{"coordinates":[[2.81985,47.23397],[2.82421,47.23443],[2.82556,47.23208],[2.83498,47.23031],[2.83043,47.22756],[2.81753,47.2239],[2.82075,47.21932],[2.81938,47.21566],[2.80939,47.2161],[2.80604,47.22207],[2.80947,47.22665],[2.81489,47.22939],[2.81476,47.23305],[2.81985,47.23397]],"type":"LineString"},"id":"terrain-contour-00200-0012","properties":{"contour_class":"intermediate","elevation_metres":200,"feature_type":"elevation_contour","representation_label":"Contour derived from the Copernicus DEM surface model; not a vineyard, parcel or legal boundary","representation_type":"derived_spatial_product","source_dataset_id":"spatial-dataset:copernicus-dem-glo30-2022-05-09","source_feature_id":"terrain-contour-00200-0012"},"type":"Feature"},{"geometry":{"coordinates":[[2.64685,47.19095],[2.65039,47.1918],[2.65194,47.19003],[2.64095,47.18259],[2.63556,47.18163],[2.63556,47.18419],[2.64685,47.19095]],"type":"LineString"},"id":"terrain-contour-00200-0013","properties":{"contour_class":"intermediate","elevation_metres":200,"feature_type":"elevation_contour","representation_label":"Contour derived from the Copernicus DEM surface model; not a vineyard, parcel or legal boundary","representation_type":"derived_spatial_product","source_dataset_id":"spatial-dataset:copernicus-dem-glo30-2022-05-09","source_feature_id":"terrain-contour-00200-0013"},"type":"Feature"},{"geometry":{"coordinates":[[2.96027,47.19003],[2.96421,47.19003],[2.97025,47.1827],[2.97034,47.17263],[2.9657,47.16884],[2.96447,47.16988],[2.96963,47.17904],[2.95896,47.1868],[2.96027,47.19003]],"type":"LineString"},"id":"terrain-contour-00200-0014","properties":{"contour_class":"intermediate","elevation_metres":200,"feature_type":"elevation_contour","representation_label":"Contour derived from the Copernicus DEM surface model; not a vineyard, parcel or legal boundary","representation_type":"derived_spatial_product","source_dataset_id":"spatial-dataset:copernicus-dem-glo30-2022-05-09","source_feature_id":"terrain-contour-00200-0014"},"type":"Feature"},{"geometry":{"coordinates":[[2.74116,47.16438],[2.74349,47.16347],[2.74321,47.15889],[2.74511,47.15614],[2.74067,47.14769],[2.73928,47.14789],[2.74011,47.15705],[2.73759,47.16072],[2.74116,47.16438]],"type":"LineString"},"id":"terrain-contour-00200-0015","properties":{"contour_class":"intermediate","elevation_metres":200,"feature_type":"elevation_contour","representation_label":"Contour derived from the Copernicus DEM surface model; not a vineyard, parcel or legal boundary","representation_type":"derived_spatial_product","source_dataset_id":"spatial-dataset:copernicus-dem-glo30-2022-05-09","source_feature_id":"terrain-contour-00200-0015"},"type":"Feature"},{"geometry":{"coordinates":[[2.88188,47.16347],[2.88619,47.16422],[2.89428,47.16144],[2.89992,47.15889],[2.90032,47.15705],[2.89697,47.15598],[2.89024,47.15647],[2.87765,47.14972],[2.87407,47.14574],[2.87137,47.14536],[2.86988,47.14697],[2.87401,47.15247],[2.87137,47.16043],[2.87272,47.16155],[2.87946,47.16171],[2.88188,47.16347]],"type":"LineString"},"id":"terrain-contour-00200-0016","properties":{"contour_class":"intermediate","elevation_metres":200,"feature_type":"elevation_contour","representation_label":"Contour derived from the Copernicus DEM surface model; not a vineyard, parcel or legal boundary","representation_type":"derived_spatial_product","source_dataset_id":"spatial-dataset:copernicus-dem-glo30-2022-05-09","source_feature_id":"terrain-contour-00200-0016"},"type":"Feature"},{"geometry":{"coordinates":[[2.70888,47.15889],[2.71276,47.15889],[2.71591,47.15339],[2.71507,47.15191],[2.70888,47.15889]],"type":"LineString"},"id":"terrain-contour-00200-0017","properties":{"contour_class":"intermediate","elevation_metres":200,"feature_type":"elevation_contour","representation_label":"Contour derived from the Copernicus DEM surface model; not a vineyard, parcel or legal boundary","representation_type":"derived_spatial_product","source_dataset_id":"spatial-dataset:copernicus-dem-glo30-2022-05-09","source_feature_id":"terrain-contour-00200-0017"},"type":"Feature"},{"geometry":{"coordinates":[[2.61358,47.14239],[2.61805,47.1415],[2.61708,47.13781],[2.60996,47.13616],[2.60869,47.13781],[2.61358,47.14239]],"type":"LineString"},"id":"terrain-contour-00200-0018","properties":{"contour_class":"intermediate","elevation_metres":200,"feature_type":"elevation_contour","representation_label":"Contour derived from the Copernicus DEM surface model; not a vineyard, parcel or legal boundary","representation_type":"derived_spatial_product","source_dataset_id":"spatial-dataset:copernicus-dem-glo30-2022-05-09","source_feature_id":"terrain-contour-00200-0018"},"type":"Feature"},{"geometry":{"coordinates":[[2.66073,47.12039],[2.65871,47.12222],[2.66289,47.13048],[2.67195,47.13741],[2.67661,47.14423],[2.67734,47.15174],[2.67011,47.15431],[2.67665,47.16347],[2.68542,47.16817],[2.68946,47.16781],[2.6962,47.16444],[2.69832,47.1653],[2.6942,47.17171],[2.69687,47.17446],[2.69619,47.17996],[2.68564,47.1827],[2.6871,47.19369],[2.69143,47.19735],[2.68677,47.19933],[2.68542,47.19872],[2.68342,47.19278],[2.68003,47.1907],[2.67734,47.20221],[2.67422,47.20193],[2.67329,47.19748],[2.66925,47.19884],[2.66521,47.1976],[2.66117,47.19911],[2.65578,47.19777],[2.65573,47.20376],[2.66449,47.20926],[2.66117,47.21401],[2.65839,47.21109],[2.65173,47.2094],[2.64769,47.20413],[2.64365,47.20385],[2.64235,47.20102],[2.64361,47.19735],[2.63986,47.19278],[2.63287,47.19165],[2.63956,47.20102],[2.63818,47.20468],[2.61939,47.20412],[2.614,47.20002],[2.61131,47.19982],[2.60636,47.20559],[2.60057,47.20743],[2.60266,47.21017],[2.59941,47.21383],[2.59918,47.21784],[2.59514,47.21392],[2.58955,47.21292],[2.58605,47.21932],[2.58706,47.22463],[2.58366,47.22207],[2.58269,47.21475],[2.57897,47.21297],[2.57628,47.21375],[2.56011,47.21144],[2.55564,47.21292],[2.55067,47.21721]],"type":"LineString"},"id":"terrain-contour-00200-0019","properties":{"contour_class":"intermediate","elevation_metres":200,"feature_type":"elevation_contour","representation_label":"Contour derived from the Copernicus DEM surface model; not a vineyard, parcel or legal boundary","representation_type":"derived_spatial_product","source_dataset_id":"spatial-dataset:copernicus-dem-glo30-2022-05-09","source_feature_id":"terrain-contour-00200-0019"},"type":"Feature"},{"geometry":{"coordinates":[[2.69549,47.12039],[2.6986,47.12589],[2.69755,47.13058],[2.7048,47.13689],[2.71911,47.1445],[2.73528,47.14442],[2.74108,47.14148],[2.73895,47.13689],[2.74242,47.13414],[2.73663,47.13036],[2.73258,47.13041],[2.72989,47.12737],[2.71576,47.12039]],"type":"LineString"},"id":"terrain-contour-00200-0020","properties":{"contour_class":"intermediate","elevation_metres":200,"feature_type":"elevation_contour","representation_label":"Contour derived from the Copernicus DEM surface model; not a vineyard, parcel or legal boundary","representation_type":"derived_spatial_product","source_dataset_id":"spatial-dataset:copernicus-dem-glo30-2022-05-09","source_feature_id":"terrain-contour-00200-0020"},"type":"Feature"},{"geometry":{"coordinates":[[2.73994,47.12039],[2.74018,47.12589],[2.74875,47.12953],[2.75135,47.13781],[2.75712,47.14514],[2.77166,47.13641],[2.77834,47.13598],[2.77828,47.13231],[2.77974,47.13181],[2.78891,47.14514],[2.78244,47.14749],[2.78389,47.15156],[2.78783,47.15197],[2.79187,47.14913],[2.78977,47.14514],[2.79591,47.13973],[2.80535,47.14784],[2.80629,47.15156],[2.81208,47.15221],[2.81882,47.15883],[2.8296,47.15534],[2.82676,47.15064],[2.82689,47.14697],[2.83265,47.14331],[2.83499,47.13978],[2.84173,47.14113],[2.84981,47.14648],[2.8552,47.14427],[2.86463,47.14591],[2.86934,47.14148],[2.87541,47.14079],[2.87352,47.13873],[2.87946,47.13802],[2.89293,47.14669],[2.89683,47.14331],[2.89388,47.13964],[2.89563,47.13419],[2.90641,47.13329],[2.90772,47.13048],[2.90236,47.12664],[2.89697,47.13078],[2.89158,47.12774],[2.87272,47.13303],[2.87137,47.1384],[2.86598,47.13306],[2.86329,47.13506],[2.86299,47.13964],[2.85925,47.14129],[2.84911,47.13506],[2.84712,47.1296],[2.84173,47.12917],[2.8365,47.13139],[2.83417,47.13414],[2.83499,47.13914],[2.81747,47.14094],[2.81074,47.13687],[2.80617,47.12406],[2.8027,47.12039]],"type":"LineString"},"id":"terrain-contour-00200-0021","properties":{"contour_class":"intermediate","elevation_metres":200,"feature_type":"elevation_contour","representation_label":"Contour derived from the Copernicus DEM surface model; not a vineyard, parcel or legal boundary","representation_type":"derived_spatial_product","source_dataset_id":"spatial-dataset:copernicus-dem-glo30-2022-05-09","source_feature_id":"terrain-contour-00200-0021"},"type":"Feature"},{"geometry":{"coordinates":[[2.7887,47.12039],[2.78918,47.12349],[2.77974,47.1241],[2.7757,47.12256],[2.77561,47.12039]],"type":"LineString"},"id":"terrain-contour-00200-0022","properties":{"contour_class":"intermediate","elevation_metres":200,"feature_type":"elevation_contour","representation_label":"Contour derived from the Copernicus DEM surface model; not a vineyard, parcel or legal boundary","representation_type":"derived_spatial_product","source_dataset_id":"spatial-dataset:copernicus-dem-glo30-2022-05-09","source_feature_id":"terrain-contour-00200-0022"},"type":"Feature"},{"geometry":{"coordinates":[[2.80731,47.12039],[2.81074,47.12498],[2.81747,47.12783],[2.82017,47.12433],[2.8296,47.12544],[2.8303,47.12039]],"type":"LineString"},"id":"terrain-contour-00200-0023","properties":{"contour_class":"intermediate","elevation_metres":200,"feature_type":"elevation_contour","representation_label":"Contour derived from the Copernicus DEM surface model; not a vineyard, parcel or legal boundary","representation_type":"derived_spatial_product","source_dataset_id":"spatial-dataset:copernicus-dem-glo30-2022-05-09","source_feature_id":"terrain-contour-00200-0023"},"type":"Feature"},{"geometry":{"coordinates":[[2.95308,47.12039],[2.94965,47.12314],[2.95144,47.12498],[2.95101,47.13048],[2.95699,47.13598],[2.96381,47.14972],[2.96839,47.15268],[2.97513,47.15359],[2.97917,47.15725],[2.98041,47.15614],[2.97553,47.15247],[2.97581,47.14789],[2.97181,47.14514],[2.97378,47.14295],[2.98188,47.14056],[2.98187,47.13904],[2.97648,47.13909],[2.97485,47.13689],[2.97638,47.13506],[2.98169,47.13414],[2.98118,47.12956],[2.9843,47.12039]],"type":"LineString"},"id":"terrain-contour-00200-0024","properties":{"contour_class":"intermediate","elevation_metres":200,"feature_type":"elevation_contour","representation_label":"Contour derived from the Copernicus DEM surface model; not a vineyard, parcel or legal boundary","representation_type":"derived_spatial_product","source_dataset_id":"spatial-dataset:copernicus-dem-glo30-2022-05-09","source_feature_id":"terrain-contour-00200-0024"},"type":"Feature"},{"geometry":{"coordinates":[[2.71199,47.46312],[2.71505,47.46312],[2.72171,47.45856],[2.71237,47.45508],[2.70698,47.45486],[2.70382,47.45856],[2.71102,47.46126],[2.71199,47.46312]],"type":"LineString"},"id":"terrain-contour-00300-0000","properties":{"contour_class":"intermediate","elevation_metres":300,"feature_type":"elevation_contour","representation_label":"Contour derived from the Copernicus DEM surface model; not a vineyard, parcel or legal boundary","representation_type":"derived_spatial_product","source_dataset_id":"spatial-dataset:copernicus-dem-glo30-2022-05-09","source_feature_id":"terrain-contour-00300-0000"},"type":"Feature"},{"geometry":{"coordinates":[[2.73426,47.4531],[2.73663,47.45368],[2.7474,47.45037],[2.75279,47.45196],[2.75258,47.44763],[2.76223,47.44193],[2.76907,47.44034],[2.77569,47.43214],[2.77402,47.42758],[2.77715,47.42211],[2.7757,47.42002],[2.77301,47.41912],[2.76557,47.42302],[2.75834,47.43305],[2.7619,47.43578],[2.76174,47.4376],[2.75279,47.4417],[2.7245,47.43941],[2.7338,47.45036],[2.73426,47.4531]],"type":"LineString"},"id":"terrain-contour-00300-0001","properties":{"contour_class":"intermediate","elevation_metres":300,"feature_type":"elevation_contour","representation_label":"Contour derived from the Copernicus DEM surface model; not a vineyard, parcel or legal boundary","representation_type":"derived_spatial_product","source_dataset_id":"spatial-dataset:copernicus-dem-glo30-2022-05-09","source_feature_id":"terrain-contour-00300-0001"},"type":"Feature"},{"geometry":{"coordinates":[[2.55067,47.44963],[2.55503,47.44307],[2.56145,47.4411],[2.56954,47.44578],[2.57568,47.4449],[2.56874,47.43214],[2.57096,47.42575],[2.57762,47.41934],[2.58302,47.4212],[2.58294,47.42758],[2.58706,47.43089],[2.59912,47.42758],[2.60323,47.42269],[2.60862,47.42565],[2.61349,47.42302],[2.61353,47.41481],[2.60654,47.40478],[2.60862,47.40114],[2.60427,47.39749],[2.60862,47.3941],[2.62396,47.3984],[2.61055,47.38289],[2.61073,47.38015],[2.614,47.3776],[2.62478,47.37621],[2.62852,47.38289],[2.63152,47.38329],[2.63384,47.38198],[2.63386,47.37742],[2.6395,47.37468],[2.6418,47.37012],[2.63694,47.35734],[2.64007,47.35551],[2.64409,47.34821],[2.65282,47.34456],[2.6537,47.33999],[2.66117,47.33666],[2.66692,47.33177],[2.67827,47.31168],[2.67474,47.3062],[2.68003,47.30521],[2.68238,47.30071],[2.68138,47.29931],[2.67464,47.2984],[2.65712,47.30238],[2.65039,47.30579],[2.64219,47.30437],[2.6429,47.30071],[2.64086,47.29706],[2.64332,47.29432],[2.65039,47.29247],[2.65202,47.29066],[2.65096,47.28335],[2.64429,47.28061],[2.64734,47.27878],[2.65971,47.27695],[2.65528,47.27421],[2.65938,47.26964],[2.65632,47.26689],[2.66156,47.26415],[2.65855,47.25958],[2.66967,47.25318],[2.6706,47.24901],[2.68003,47.24882],[2.68238,47.24494],[2.68175,47.2422],[2.67329,47.2385],[2.67195,47.24303],[2.66386,47.2436],[2.65982,47.24734],[2.65443,47.24644],[2.654,47.25226],[2.65039,47.25422],[2.64756,47.24952],[2.64095,47.24683],[2.63621,47.2486],[2.63675,47.25318],[2.63422,47.25477],[2.62613,47.25121],[2.627,47.255],[2.62517,47.25775],[2.61964,47.26232],[2.60862,47.26422],[2.60592,47.27235],[2.59784,47.27147],[2.5968,47.26872],[2.5911,47.26676],[2.58379,47.27421],[2.57493,47.27442],[2.56954,47.27768],[2.55741,47.2789],[2.55067,47.28211]],"type":"LineString"},"id":"terrain-contour-00300-0002","properties":{"contour_class":"intermediate","elevation_metres":300,"feature_type":"elevation_contour","representation_label":"Contour derived from the Copernicus DEM surface model; not a vineyard, parcel or legal boundary","representation_type":"derived_spatial_product","source_dataset_id":"spatial-dataset:copernicus-dem-glo30-2022-05-09","source_feature_id":"terrain-contour-00300-0002"},"type":"Feature"},{"geometry":{"coordinates":[[2.68047,47.40752],[2.68273,47.40813],[2.69485,47.40346],[2.70895,47.39566],[2.7097,47.3911],[2.70698,47.38731],[2.70429,47.38714],[2.69983,47.3911],[2.69118,47.39384],[2.68946,47.39808],[2.68138,47.4037],[2.68047,47.40752]],"type":"LineString"},"id":"terrain-contour-00300-0003","properties":{"contour_class":"intermediate","elevation_metres":300,"feature_type":"elevation_contour","representation_label":"Contour derived from the Copernicus DEM surface model; not a vineyard, parcel or legal boundary","representation_type":"derived_spatial_product","source_dataset_id":"spatial-dataset:copernicus-dem-glo30-2022-05-09","source_feature_id":"terrain-contour-00300-0003"},"type":"Feature"},{"geometry":{"coordinates":[[2.73263,47.39019],[2.73549,47.39019],[2.73653,47.38289],[2.74046,47.38107],[2.73797,47.37438],[2.74067,47.37278],[2.7474,47.3741],[2.75145,47.37096],[2.75414,47.36399],[2.75958,47.36373],[2.76492,47.36048],[2.76762,47.36169],[2.7757,47.36044],[2.77799,47.36282],[2.77029,47.37377],[2.77044,47.38289],[2.77435,47.38328],[2.77974,47.37988],[2.78379,47.38274],[2.78918,47.38202],[2.79591,47.38649],[2.80172,47.38563],[2.80207,47.38289],[2.79819,47.38107],[2.79692,47.37742],[2.78829,47.37468],[2.78983,47.37103],[2.79468,47.36738],[2.79341,47.36373],[2.78909,47.3619],[2.78783,47.35761],[2.77869,47.3546],[2.78379,47.34983],[2.78783,47.35187],[2.79187,47.34918],[2.79457,47.34936],[2.80192,47.35643],[2.80669,47.35781],[2.80288,47.35277],[2.802,47.34273],[2.79861,47.34113],[2.79052,47.3408],[2.79109,47.33725],[2.78615,47.33269],[2.78783,47.33114],[2.79591,47.33205],[2.79426,47.32538],[2.79996,47.32419],[2.80138,47.32264],[2.79726,47.31747],[2.79322,47.31995],[2.7849,47.32081],[2.78425,47.30894],[2.7784,47.30566],[2.77031,47.30564],[2.77031,47.31156],[2.76223,47.31112],[2.75953,47.30677],[2.75145,47.30431],[2.74471,47.30604],[2.73797,47.3046],[2.72025,47.31076],[2.72043,47.31442],[2.72719,47.31428],[2.73528,47.31619],[2.73935,47.31899],[2.72199,47.32355],[2.72563,47.32721],[2.72405,47.33086],[2.72585,47.33245],[2.73258,47.33104],[2.73932,47.33195],[2.74201,47.32918],[2.74606,47.3291],[2.75549,47.32466],[2.75784,47.32538],[2.75267,47.32903],[2.75221,47.33269],[2.74745,47.33451],[2.74848,47.33817],[2.7467,47.34091],[2.74826,47.34273],[2.74506,47.34547],[2.74606,47.34642],[2.75736,47.34456],[2.75579,47.34821],[2.75055,47.35095],[2.75353,47.3546],[2.75145,47.35598],[2.74606,47.35455],[2.74067,47.35543],[2.72412,47.36464],[2.72199,47.37103],[2.71641,47.37758],[2.71171,47.38015],[2.71169,47.38198],[2.71507,47.3833],[2.71776,47.37895],[2.72854,47.37638],[2.73336,47.38563],[2.73263,47.39019]],"type":"LineString"},"id":"terrain-contour-00300-0004","properties":{"contour_class":"intermediate","elevation_metres":300,"feature_type":"elevation_contour","representation_label":"Contour derived from the Copernicus DEM surface model; not a vineyard, parcel or legal boundary","representation_type":"derived_spatial_product","source_dataset_id":"spatial-dataset:copernicus-dem-glo30-2022-05-09","source_feature_id":"terrain-contour-00300-0004"},"type":"Feature"},{"geometry":{"coordinates":[[2.55067,47.37941],[2.55677,47.37194],[2.5628,47.37136],[2.56684,47.3684],[2.57971,47.37012],[2.57291,47.37377],[2.56836,47.38015],[2.57095,47.38563],[2.56681,47.39384],[2.57089,47.39494],[2.57141,47.39657],[2.5542,47.40296],[2.55268,47.40661],[2.55557,47.41025],[2.55067,47.41156]],"type":"LineString"},"id":"terrain-contour-00300-0005","properties":{"contour_class":"intermediate","elevation_metres":300,"feature_type":"elevation_contour","representation_label":"Contour derived from the Copernicus DEM surface model; not a vineyard, parcel or legal boundary","representation_type":"derived_spatial_product","source_dataset_id":"spatial-dataset:copernicus-dem-glo30-2022-05-09","source_feature_id":"terrain-contour-00300-0005"},"type":"Feature"},{"geometry":{"coordinates":[[2.55067,47.31329],[2.55741,47.31093],[2.56117,47.31168],[2.55554,47.31807],[2.56082,47.32538],[2.55232,47.33086],[2.56145,47.33577],[2.57897,47.33594],[2.59649,47.33342],[2.60592,47.32599],[2.62193,47.32538],[2.62932,47.32081],[2.63152,47.31766],[2.63253,47.32447],[2.63092,47.32903],[2.62209,47.33678],[2.61131,47.33825],[2.60188,47.34468],[2.59514,47.34375],[2.58257,47.3473],[2.58125,47.34912],[2.58369,47.35186],[2.58167,47.35277],[2.57628,47.35089],[2.56684,47.35269],[2.56284,47.35551],[2.5646,47.35916],[2.5628,47.36103],[2.55645,47.36008],[2.55067,47.35573]],"type":"LineString"},"id":"terrain-contour-00300-0006","properties":{"contour_class":"intermediate","elevation_metres":300,"feature_type":"elevation_contour","representation_label":"Contour derived from the Copernicus DEM surface model; not a vineyard, parcel or legal boundary","representation_type":"derived_spatial_product","source_dataset_id":"spatial-dataset:copernicus-dem-glo30-2022-05-09","source_feature_id":"terrain-contour-00300-0006"},"type":"Feature"},{"geometry":{"coordinates":[[2.83706,47.31168],[2.83903,47.31255],[2.84276,47.30985],[2.84665,47.30071],[2.84442,47.29886],[2.83798,47.2998],[2.83706,47.31168]],"type":"LineString"},"id":"terrain-contour-00300-0007","properties":{"contour_class":"intermediate","elevation_metres":300,"feature_type":"elevation_contour","representation_label":"Contour derived from the Copernicus DEM surface model; not a vineyard, parcel or legal boundary","representation_type":"derived_spatial_product","source_dataset_id":"spatial-dataset:copernicus-dem-glo30-2022-05-09","source_feature_id":"terrain-contour-00300-0007"},"type":"Feature"},{"geometry":{"coordinates":[[2.68092,47.28518],[2.68542,47.28562],[2.69216,47.28309],[2.69412,47.27878],[2.68869,47.27329],[2.69216,47.27077],[2.69755,47.27127],[2.70294,47.26795],[2.70628,47.26964],[2.70698,47.27372],[2.71122,47.27512],[2.71038,47.26689],[2.71349,47.26415],[2.70563,47.25794],[2.70024,47.2585],[2.69635,47.255],[2.69195,47.255],[2.68407,47.25033],[2.68126,47.25135],[2.6817,47.25592],[2.67734,47.25637],[2.67576,47.26049],[2.67917,47.26324],[2.68407,47.26457],[2.68723,47.26781],[2.67868,47.26851],[2.67052,47.27146],[2.67371,47.27512],[2.67324,47.27786],[2.6815,47.28152],[2.68092,47.28518]],"type":"LineString"},"id":"terrain-contour-00300-0008","properties":{"contour_class":"intermediate","elevation_metres":300,"feature_type":"elevation_contour","representation_label":"Contour derived from the Copernicus DEM surface model; not a vineyard, parcel or legal boundary","representation_type":"derived_spatial_product","source_dataset_id":"spatial-dataset:copernicus-dem-glo30-2022-05-09","source_feature_id":"terrain-contour-00300-0008"},"type":"Feature"},{"geometry":{"coordinates":[[2.55067,47.25869],[2.56145,47.25894],[2.57061,47.25409],[2.57317,47.24952],[2.57065,47.24677],[2.56684,47.2457],[2.55067,47.24857]],"type":"LineString"},"id":"terrain-contour-00300-0009","properties":{"contour_class":"intermediate","elevation_metres":300,"feature_type":"elevation_contour","representation_label":"Contour derived from the Copernicus DEM surface model; not a vineyard, parcel or legal boundary","representation_type":"derived_spatial_product","source_dataset_id":"spatial-dataset:copernicus-dem-glo30-2022-05-09","source_feature_id":"terrain-contour-00300-0009"},"type":"Feature"},{"geometry":{"coordinates":[[2.65381,47.32721],[2.65847,47.32554],[2.66316,47.3199],[2.66687,47.31259],[2.66521,47.31047],[2.6597,47.31259],[2.64974,47.3199],[2.64849,47.32355],[2.65381,47.32721]],"type":"LineString"},"id":"terrain-contour-00400-0000","properties":{"contour_class":"intermediate","elevation_metres":400,"feature_type":"elevation_contour","representation_label":"Contour derived from the Copernicus DEM surface model; not a vineyard, parcel or legal boundary","representation_type":"derived_spatial_product","source_dataset_id":"spatial-dataset:copernicus-dem-glo30-2022-05-09","source_feature_id":"terrain-contour-00400-0000"},"type":"Feature"},{"geometry":{"coordinates":[[2.61874,47.29797],[2.62209,47.29885],[2.62478,47.29787],[2.63207,47.28518],[2.6284,47.27786],[2.63008,47.27146],[2.62613,47.27008],[2.62209,47.27062],[2.61535,47.27858],[2.60015,47.28061],[2.59545,47.28609],[2.61266,47.29325],[2.614,47.29772],[2.61874,47.29797]],"type":"LineString"},"id":"terrain-contour-00400-0001","properties":{"contour_class":"intermediate","elevation_metres":400,"feature_type":"elevation_contour","representation_label":"Contour derived from the Copernicus DEM surface model; not a vineyard, parcel or legal boundary","representation_type":"derived_spatial_product","source_dataset_id":"spatial-dataset:copernicus-dem-glo30-2022-05-09","source_feature_id":"terrain-contour-00400-0001"},"type":"Feature"},{"geometry":{"coordinates":[[2.58924,47.29523],[2.58941,47.28883],[2.58706,47.28758],[2.58236,47.28792],[2.58185,47.28975],[2.58924,47.29523]],"type":"LineString"},"id":"terrain-contour-00400-0002","properties":{"contour_class":"intermediate","elevation_metres":400,"feature_type":"elevation_contour","representation_label":"Contour derived from the Copernicus DEM surface model; not a vineyard, parcel or legal boundary","representation_type":"derived_spatial_product","source_dataset_id":"spatial-dataset:copernicus-dem-glo30-2022-05-09","source_feature_id":"terrain-contour-00400-0002"},"type":"Feature"},{"geometry":{"coordinates":[[2.63507,47.27055],[2.64056,47.26964],[2.63961,47.26603],[2.63409,47.26781],[2.63507,47.27055]],"type":"LineString"},"id":"terrain-contour-00400-0003","properties":{"contour_class":"intermediate","elevation_metres":400,"feature_type":"elevation_contour","representation_label":"Contour derived from the Copernicus DEM surface model; not a vineyard, parcel or legal boundary","representation_type":"derived_spatial_product","source_dataset_id":"spatial-dataset:copernicus-dem-glo30-2022-05-09","source_feature_id":"terrain-contour-00400-0003"},"type":"Feature"}],"type":"FeatureCollection"}
