{"features":[{"geometry":{"coordinates":[[-0.53516,47.33629],[-0.5314,47.33629],[-0.52998,47.32971],[-0.52459,47.32885],[-0.51764,47.32442],[-0.52278,47.31986],[-0.51792,47.31803],[-0.52329,47.31255],[-0.52265,47.30798],[-0.52459,47.30679],[-0.53132,47.30704],[-0.53537,47.30204],[-0.53941,47.30153],[-0.54045,47.3025],[-0.538,47.30981],[-0.54884,47.30789],[-0.55298,47.31072],[-0.56124,47.31255],[-0.56211,47.31346],[-0.55601,47.31529],[-0.55692,47.31691],[-0.57175,47.31128],[-0.59535,47.31986],[-0.59331,47.3219],[-0.58333,47.32077],[-0.57309,47.3256],[-0.56905,47.322],[-0.55751,47.32168],[-0.55692,47.3183],[-0.55311,47.32351],[-0.54614,47.32352],[-0.54671,47.31803],[-0.53671,47.31729],[-0.53671,47.31976],[-0.54113,47.32168],[-0.53673,47.32442],[-0.53668,47.32625],[-0.54155,47.32899],[-0.53759,47.33173],[-0.53761,47.33447],[-0.53516,47.33629]],"type":"LineString"},"id":"terrain-contour-00100-0000","properties":{"contour_class":"intermediate","elevation_metres":100,"feature_type":"elevation_contour","representation_label":"Contour derived from the Copernicus DEM surface model; not a vineyard, parcel or legal boundary","representation_type":"derived_spatial_product","source_dataset_id":"spatial-dataset:copernicus-dem-glo30-2022-05-09","source_feature_id":"terrain-contour-00100-0000"},"type":"Feature"},{"geometry":{"coordinates":[[-0.84933,47.32357],[-0.84502,47.31986],[-0.84527,47.3162],[-0.83855,47.31462],[-0.83553,47.3162],[-0.83677,47.31986],[-0.83541,47.32168],[-0.82507,47.32209],[-0.81967,47.32534],[-0.81635,47.32168],[-0.82515,47.3162],[-0.8233,47.31346],[-0.82712,47.31072],[-0.82419,47.30615],[-0.81699,47.30752],[-0.81429,47.30433],[-0.80755,47.30341],[-0.79812,47.30884],[-0.79004,47.30708],[-0.78765,47.30432],[-0.79408,47.30313],[-0.79947,47.29996],[-0.80755,47.3034],[-0.8161,47.29793],[-0.82238,47.29607],[-0.82911,47.29784],[-0.8345,47.29715],[-0.83057,47.29336],[-0.82372,47.29097],[-0.8183,47.28696],[-0.81683,47.28148],[-0.82777,47.27947],[-0.83181,47.28062],[-0.8372,47.27763],[-0.84933,47.27894]],"type":"LineString"},"id":"terrain-contour-00100-0001","properties":{"contour_class":"intermediate","elevation_metres":100,"feature_type":"elevation_contour","representation_label":"Contour derived from the Copernicus DEM surface model; not a vineyard, parcel or legal boundary","representation_type":"derived_spatial_product","source_dataset_id":"spatial-dataset:copernicus-dem-glo30-2022-05-09","source_feature_id":"terrain-contour-00100-0001"},"type":"Feature"},{"geometry":{"coordinates":[[-0.69499,47.28422],[-0.69265,47.2833],[-0.69495,47.27782],[-0.69183,47.27142],[-0.69841,47.26605],[-0.7011,47.26586],[-0.69906,47.28056],[-0.69499,47.28422]],"type":"LineString"},"id":"terrain-contour-00100-0002","properties":{"contour_class":"intermediate","elevation_metres":100,"feature_type":"elevation_contour","representation_label":"Contour derived from the Copernicus DEM surface model; not a vineyard, parcel or legal boundary","representation_type":"derived_spatial_product","source_dataset_id":"spatial-dataset:copernicus-dem-glo30-2022-05-09","source_feature_id":"terrain-contour-00100-0002"},"type":"Feature"},{"geometry":{"coordinates":[[-0.68227,47.27416],[-0.67825,47.27325],[-0.6782,47.2706],[-0.68777,47.27051],[-0.68832,47.27142],[-0.68227,47.27416]],"type":"LineString"},"id":"terrain-contour-00100-0003","properties":{"contour_class":"intermediate","elevation_metres":100,"feature_type":"elevation_contour","representation_label":"Contour derived from the Copernicus DEM surface model; not a vineyard, parcel or legal boundary","representation_type":"derived_spatial_product","source_dataset_id":"spatial-dataset:copernicus-dem-glo30-2022-05-09","source_feature_id":"terrain-contour-00100-0003"},"type":"Feature"},{"geometry":{"coordinates":[[-0.84933,47.27283],[-0.83494,47.27142],[-0.83757,47.26502],[-0.8345,47.26164],[-0.82642,47.26256],[-0.82372,47.26662],[-0.81968,47.26425],[-0.81294,47.26877],[-0.81005,47.27416],[-0.80755,47.27486],[-0.80619,47.27325],[-0.808,47.26868],[-0.80216,47.265],[-0.79947,47.27234],[-0.78734,47.26833],[-0.786,47.26424],[-0.77926,47.26362],[-0.77379,47.2641],[-0.76865,47.26959],[-0.76174,47.26993],[-0.75542,47.2641],[-0.76578,47.26627],[-0.76847,47.26136],[-0.76471,47.25587],[-0.75905,47.25363],[-0.74153,47.25786],[-0.73749,47.25697],[-0.73007,47.25862],[-0.7412,47.2449],[-0.73614,47.24152],[-0.7294,47.24331],[-0.72657,47.24124],[-0.72617,47.23209],[-0.72797,47.23026],[-0.73614,47.23192],[-0.74018,47.23082],[-0.74557,47.23197],[-0.75096,47.23104],[-0.74947,47.23392],[-0.75096,47.23697],[-0.75916,47.23941],[-0.75877,47.24307],[-0.76531,47.24398],[-0.76766,47.25039],[-0.77387,47.25164],[-0.77926,47.25473],[-0.78321,47.25222],[-0.77656,47.25073],[-0.77405,47.24856],[-0.77571,47.24124],[-0.77236,47.23849],[-0.77183,47.23575],[-0.786,47.2369],[-0.78465,47.23225],[-0.79609,47.22752],[-0.79543,47.22553],[-0.78869,47.2267],[-0.78465,47.22499],[-0.77656,47.22765],[-0.77499,47.2266],[-0.77959,47.22202],[-0.77706,47.21562],[-0.78153,47.21287],[-0.77791,47.20905],[-0.77387,47.21007],[-0.77117,47.20848],[-0.76848,47.20912],[-0.7667,47.21653],[-0.76039,47.21867],[-0.75635,47.21609],[-0.75231,47.2181],[-0.74961,47.21644],[-0.74557,47.21657],[-0.74194,47.21379],[-0.74218,47.21104],[-0.73979,47.20921],[-0.74153,47.20544],[-0.75231,47.20719],[-0.75893,47.20646],[-0.75766,47.2028],[-0.76174,47.20241],[-0.77083,47.19456],[-0.76983,47.19247],[-0.75932,47.19273],[-0.76028,47.18907],[-0.76328,47.18724],[-0.76983,47.187],[-0.77148,47.18541],[-0.76983,47.17847],[-0.76309,47.18227],[-0.76039,47.1811],[-0.75946,47.17533],[-0.76319,47.1735],[-0.7623,47.17258],[-0.75577,47.17533],[-0.75318,47.18449],[-0.74692,47.1901],[-0.74552,47.18266],[-0.74288,47.17927],[-0.73749,47.18783],[-0.73479,47.18518],[-0.72862,47.18632],[-0.72863,47.18907],[-0.73689,47.19639],[-0.72536,47.19777],[-0.72266,47.20083],[-0.7149,47.19823],[-0.71209,47.19182],[-0.70784,47.19495],[-0.70388,47.20372],[-0.69921,47.20646],[-0.7038,47.20779],[-0.71054,47.20649],[-0.71441,47.21379],[-0.71875,47.2147],[-0.71593,47.21848],[-0.70999,47.21379],[-0.69841,47.21106],[-0.6964,47.20738],[-0.68274,47.2028],[-0.68512,47.19639],[-0.67146,47.19547],[-0.66607,47.18734],[-0.66252,47.18815],[-0.66038,47.19365],[-0.65394,47.19615],[-0.65353,47.20097],[-0.64451,47.20562],[-0.64197,47.21104],[-0.63643,47.21545],[-0.63473,47.2147],[-0.63666,47.21196],[-0.63618,47.20555],[-0.64223,47.19823],[-0.63238,47.19604],[-0.63081,47.19365],[-0.63163,47.1909],[-0.63823,47.18632],[-0.63777,47.18036],[-0.62295,47.18552],[-0.62151,47.18541],[-0.62465,47.18174],[-0.62298,47.17991],[-0.61487,47.18039],[-0.61217,47.17847],[-0.60813,47.17974],[-0.596,47.17979],[-0.58657,47.18334],[-0.58517,47.17991],[-0.58976,47.17625],[-0.58926,47.17497],[-0.58387,47.17396],[-0.58175,47.17808],[-0.57848,47.17918],[-0.5677,47.17814],[-0.55962,47.174],[-0.55827,47.1702],[-0.5488,47.17258],[-0.54426,47.168],[-0.54749,47.16376],[-0.54075,47.16185],[-0.53862,47.15884],[-0.54075,47.1561],[-0.5448,47.15585],[-0.54872,47.15334],[-0.54854,47.14968]],"type":"LineString"},"id":"terrain-contour-00100-0004","properties":{"contour_class":"intermediate","elevation_metres":100,"feature_type":"elevation_contour","representation_label":"Contour derived from the Copernicus DEM surface model; not a vineyard, parcel or legal boundary","representation_type":"derived_spatial_product","source_dataset_id":"spatial-dataset:copernicus-dem-glo30-2022-05-09","source_feature_id":"terrain-contour-00100-0004"},"type":"Feature"},{"geometry":{"coordinates":[[-0.84933,47.2166],[-0.83855,47.22308],[-0.83585,47.2209],[-0.82642,47.21907],[-0.82507,47.22284],[-0.81833,47.22374],[-0.81632,47.2266],[-0.81833,47.22819],[-0.82642,47.22757],[-0.82918,47.22935],[-0.82612,47.23575],[-0.822,47.23941],[-0.82642,47.24183],[-0.83181,47.23892],[-0.83855,47.2429],[-0.83855,47.23941],[-0.83366,47.23484],[-0.8372,47.23364],[-0.84259,47.23407],[-0.84528,47.23187],[-0.84933,47.23267]],"type":"LineString"},"id":"terrain-contour-00100-0005","properties":{"contour_class":"intermediate","elevation_metres":100,"feature_type":"elevation_contour","representation_label":"Contour derived from the Copernicus DEM surface model; not a vineyard, parcel or legal boundary","representation_type":"derived_spatial_product","source_dataset_id":"spatial-dataset:copernicus-dem-glo30-2022-05-09","source_feature_id":"terrain-contour-00100-0005"},"type":"Feature"},{"geometry":{"coordinates":[[-0.84933,47.17297],[-0.84681,47.1735],[-0.84528,47.17582],[-0.84124,47.17559],[-0.83989,47.1712],[-0.8345,47.17064],[-0.83131,47.168],[-0.83299,47.16525],[-0.83211,47.15976],[-0.83046,47.15848],[-0.82672,47.15884],[-0.82507,47.16325],[-0.82062,47.16525],[-0.82777,47.16619],[-0.82973,47.16892],[-0.82507,47.1736],[-0.81699,47.17625],[-0.81833,47.17842],[-0.82589,47.179],[-0.8267,47.18541],[-0.8372,47.18702],[-0.83747,47.1909],[-0.82777,47.19197],[-0.81968,47.19719],[-0.80621,47.19277],[-0.80393,47.19731],[-0.80937,47.20189],[-0.79362,47.21013],[-0.79947,47.2107],[-0.81294,47.20864],[-0.82642,47.20149],[-0.82842,47.2028],[-0.82616,47.20921],[-0.83046,47.20947],[-0.84933,47.19935]],"type":"LineString"},"id":"terrain-contour-00100-0006","properties":{"contour_class":"intermediate","elevation_metres":100,"feature_type":"elevation_contour","representation_label":"Contour derived from the Copernicus DEM surface model; not a vineyard, parcel or legal boundary","representation_type":"derived_spatial_product","source_dataset_id":"spatial-dataset:copernicus-dem-glo30-2022-05-09","source_feature_id":"terrain-contour-00100-0006"},"type":"Feature"},{"geometry":{"coordinates":[[-0.52942,47.14968],[-0.52708,47.15518],[-0.52189,47.15792],[-0.51635,47.16525],[-0.52467,47.168],[-0.52505,47.17075],[-0.5192,47.17102],[-0.51111,47.17486],[-0.50572,47.17508],[-0.49764,47.17973],[-0.49586,47.17808],[-0.49628,47.1735],[-0.49188,47.16984],[-0.49792,47.16342],[-0.49661,47.16159],[-0.49903,47.15976],[-0.49764,47.15779],[-0.48955,47.16389],[-0.48686,47.15802],[-0.48416,47.15906],[-0.48201,47.16159],[-0.48619,47.16892],[-0.48214,47.17258],[-0.48249,47.17625],[-0.47203,47.17956],[-0.47013,47.179],[-0.47203,47.17455],[-0.46577,47.1735],[-0.46664,47.16913],[-0.45586,47.16802],[-0.44935,47.16434],[-0.45182,47.16258],[-0.45721,47.16227],[-0.46125,47.15961],[-0.46664,47.15979],[-0.47286,47.15793],[-0.46664,47.15111],[-0.45452,47.15616],[-0.44923,47.15609],[-0.44913,47.15497],[-0.46044,47.14968]],"type":"LineString"},"id":"terrain-contour-00100-0007","properties":{"contour_class":"intermediate","elevation_metres":100,"feature_type":"elevation_contour","representation_label":"Contour derived from the Copernicus DEM surface model; not a vineyard, parcel or legal boundary","representation_type":"derived_spatial_product","source_dataset_id":"spatial-dataset:copernicus-dem-glo30-2022-05-09","source_feature_id":"terrain-contour-00100-0007"},"type":"Feature"},{"geometry":{"coordinates":[[-0.42818,47.14968],[-0.4368,47.15334],[-0.437,47.15539],[-0.42487,47.1562],[-0.4251,47.15243],[-0.42257,47.14968]],"type":"LineString"},"id":"terrain-contour-00100-0008","properties":{"contour_class":"intermediate","elevation_metres":100,"feature_type":"elevation_contour","representation_label":"Contour derived from the Copernicus DEM surface model; not a vineyard, parcel or legal boundary","representation_type":"derived_spatial_product","source_dataset_id":"spatial-dataset:copernicus-dem-glo30-2022-05-09","source_feature_id":"terrain-contour-00100-0008"},"type":"Feature"},{"geometry":{"coordinates":[[-0.74469,47.14968],[-0.73779,47.15426],[-0.72729,47.15518],[-0.73973,47.14968]],"type":"LineString"},"id":"terrain-contour-00200-0000","properties":{"contour_class":"intermediate","elevation_metres":200,"feature_type":"elevation_contour","representation_label":"Contour derived from the Copernicus DEM surface model; not a vineyard, parcel or legal boundary","representation_type":"derived_spatial_product","source_dataset_id":"spatial-dataset:copernicus-dem-glo30-2022-05-09","source_feature_id":"terrain-contour-00200-0000"},"type":"Feature"},{"geometry":{"coordinates":[[-0.70225,47.14968],[-0.71048,47.15334],[-0.69557,47.15609],[-0.69751,47.16067],[-0.67954,47.15768],[-0.67146,47.15922],[-0.65655,47.15701],[-0.65933,47.15438],[-0.67011,47.15334],[-0.67107,47.14968]],"type":"LineString"},"id":"terrain-contour-00200-0001","properties":{"contour_class":"intermediate","elevation_metres":200,"feature_type":"elevation_contour","representation_label":"Contour derived from the Copernicus DEM surface model; not a vineyard, parcel or legal boundary","representation_type":"derived_spatial_product","source_dataset_id":"spatial-dataset:copernicus-dem-glo30-2022-05-09","source_feature_id":"terrain-contour-00200-0001"},"type":"Feature"}],"type":"FeatureCollection"}
