{"features":[{"geometry":{"coordinates":[-0.297603,47.22511],"type":"Point"},"id":"carta-wine-region-anjou-wine-region","properties":{"bounds":[-1.354199,46.888802,0.118306,47.683154],"carta_entity_id":"place:anjou-wine-region","child_carta_entity_ids":["appellation:anjou","appellation:coteaux-du-layon","appellation:coulee-de-serrant","appellation:savennieres","appellation:savennieres-roche-aux-moines"],"derivation":"representative_point_of_union_of_mapped_child_inao_geometries","feature_type":"wine_region_orientation","governance_status":"governed","human_reference_path":"atlas/countries/france/regions/anjou.md","name":"Anjou","representation_label":"CARTA wine-region orientation label; not a statutory polygon","representation_type":"derived_label_anchor","source_dataset_id":"spatial-dataset:inao-aires-geographiques-siqo-2026-08-24","source_feature_id":"carta-wine-region-anjou-wine-region"},"type":"Feature"},{"geometry":{"coordinates":[4.642344,46.054379],"type":"Point"},"id":"carta-wine-region-beaujolais","properties":{"bounds":[4.418061,45.822657,4.810818,46.28598],"carta_entity_id":"place:beaujolais","child_carta_entity_ids":["appellation:beaujolais","appellation:brouilly","appellation:chenas","appellation:chiroubles","appellation:cote-de-brouilly","appellation:fleurie","appellation:julienas","appellation:morgon","appellation:moulin-a-vent","appellation:regnie","appellation:saint-amour"],"derivation":"representative_point_of_union_of_mapped_child_inao_geometries","feature_type":"wine_region_orientation","governance_status":"governed","human_reference_path":"atlas/countries/france/regions/beaujolais.md","name":"Beaujolais","representation_label":"CARTA wine-region orientation label; not a statutory polygon","representation_type":"derived_label_anchor","source_dataset_id":"spatial-dataset:inao-aires-geographiques-siqo-2026-08-24","source_feature_id":"carta-wine-region-beaujolais"},"type":"Feature"},{"geometry":{"coordinates":[3.739917,47.795842],"type":"Point"},"id":"carta-wine-region-burgundy","properties":{"bounds":[3.27061,45.822657,5.101997,48.060298],"carta_entity_id":"place:burgundy","child_carta_entity_ids":["appellation:bourgogne","appellation:bourgogne-aligote","appellation:bourgogne-cote-d-or","appellation:chablis-grand-cru"],"derivation":"representative_point_of_union_of_mapped_child_inao_geometries","feature_type":"wine_region_orientation","governance_status":"governed","human_reference_path":"atlas/countries/france/regions/burgundy.md","name":"Burgundy","representation_label":"CARTA wine-region orientation label; not a statutory polygon","representation_type":"derived_label_anchor","source_dataset_id":"spatial-dataset:inao-aires-geographiques-siqo-2026-08-24","source_feature_id":"carta-wine-region-burgundy"},"type":"Feature"},{"geometry":{"coordinates":[-0.513282,43.280756],"type":"Point"},"id":"carta-wine-region-bearn","properties":{"bounds":[-1.031034,43.14584,-0.000565,43.631414],"carta_entity_id":"place:bearn","child_carta_entity_ids":["appellation:bearn","appellation:jurancon"],"derivation":"representative_point_of_union_of_mapped_child_inao_geometries","feature_type":"wine_region_orientation","governance_status":"governed","human_reference_path":"atlas/countries/france/regions/bearn.md","name":"Béarn","representation_label":"CARTA wine-region orientation label; not a statutory polygon","representation_type":"derived_label_anchor","source_dataset_id":"spatial-dataset:inao-aires-geographiques-siqo-2026-08-24","source_feature_id":"carta-wine-region-bearn"},"type":"Feature"},{"geometry":{"coordinates":[2.806386,47.311938],"type":"Point"},"id":"carta-wine-region-centre-loire","properties":{"bounds":[2.637186,47.199428,3.087201,47.424602],"carta_entity_id":"place:centre-loire","child_carta_entity_ids":["appellation:pouilly-fume","appellation:pouilly-sur-loire","appellation:sancerre"],"derivation":"representative_point_of_union_of_mapped_child_inao_geometries","feature_type":"wine_region_orientation","governance_status":"governed","human_reference_path":"atlas/countries/france/regions/centre-loire.md","name":"Centre-Loire","representation_label":"CARTA wine-region orientation label; not a statutory polygon","representation_type":"derived_label_anchor","source_dataset_id":"spatial-dataset:inao-aires-geographiques-siqo-2026-08-24","source_feature_id":"carta-wine-region-centre-loire"},"type":"Feature"},{"geometry":{"coordinates":[5.598918,46.761137],"type":"Point"},"id":"carta-wine-region-jura","properties":{"bounds":[5.298652,46.388689,5.975687,47.046809],"carta_entity_id":"place:jura","child_carta_entity_ids":["appellation:arbois","appellation:chateau-chalon","appellation:cotes-du-jura","appellation:cremant-du-jura","appellation:l-etoile","appellation:macvin-du-jura"],"derivation":"representative_point_of_union_of_mapped_child_inao_geometries","feature_type":"wine_region_orientation","governance_status":"governed","human_reference_path":"atlas/countries/france/regions/jura.md","name":"Jura","representation_label":"CARTA wine-region orientation label; not a statutory polygon","representation_type":"derived_label_anchor","source_dataset_id":"spatial-dataset:inao-aires-geographiques-siqo-2026-08-24","source_feature_id":"carta-wine-region-jura"},"type":"Feature"},{"geometry":{"coordinates":[0.960835,46.887617],"type":"Point"},"id":"carta-wine-region-loire-valley","properties":{"bounds":[-2.62547,45.287066,4.231911,48.485027],"carta_entity_id":"place:loire-valley","child_carta_entity_ids":["appellation:anjou","appellation:cheverny","appellation:chinon","appellation:coteaux-du-layon","appellation:coteaux-du-loir","appellation:coulee-de-serrant","appellation:cour-cheverny","appellation:cremant-de-loire","appellation:igp-val-de-loire","appellation:jasnieres","appellation:montlouis-sur-loire","appellation:muscadet","appellation:muscadet-sevre-et-maine","appellation:pouilly-fume","appellation:pouilly-sur-loire","appellation:sancerre","appellation:saumur","appellation:saumur-champigny","appellation:savennieres","appellation:savennieres-roche-aux-moines","appellation:vouvray"],"derivation":"representative_point_of_union_of_mapped_child_inao_geometries","feature_type":"wine_region_orientation","governance_status":"governed","human_reference_path":"atlas/countries/france/regions/loire-valley.md","name":"Loire Valley","representation_label":"CARTA wine-region orientation label; not a statutory polygon","representation_type":"derived_label_anchor","source_dataset_id":"spatial-dataset:inao-aires-geographiques-siqo-2026-08-24","source_feature_id":"carta-wine-region-loire-valley"},"type":"Feature"},{"geometry":{"coordinates":[4.782502,45.202568],"type":"Point"},"id":"carta-wine-region-northern-rhone","properties":{"bounds":[4.679987,44.877484,4.952131,45.527507],"carta_entity_id":"place:northern-rhone","child_carta_entity_ids":["appellation:chateau-grillet","appellation:condrieu","appellation:cornas","appellation:cote-rotie","appellation:crozes-hermitage","appellation:hermitage","appellation:saint-joseph","appellation:saint-peray"],"derivation":"representative_point_of_union_of_mapped_child_inao_geometries","feature_type":"wine_region_orientation","governance_status":"governed","human_reference_path":"atlas/countries/france/regions/northern-rhone.md","name":"Northern Rhône","representation_label":"CARTA wine-region orientation label; not a statutory polygon","representation_type":"derived_label_anchor","source_dataset_id":"spatial-dataset:inao-aires-geographiques-siqo-2026-08-24","source_feature_id":"carta-wine-region-northern-rhone"},"type":"Feature"},{"geometry":{"coordinates":[-1.330189,47.155502],"type":"Point"},"id":"carta-wine-region-pays-nantais","properties":{"bounds":[-1.975404,46.872925,-0.961822,47.438012],"carta_entity_id":"place:pays-nantais","child_carta_entity_ids":["appellation:muscadet","appellation:muscadet-sevre-et-maine"],"derivation":"representative_point_of_union_of_mapped_child_inao_geometries","feature_type":"wine_region_orientation","governance_status":"governed","human_reference_path":"atlas/countries/france/regions/pays-nantais.md","name":"Pays Nantais","representation_label":"CARTA wine-region orientation label; not a statutory polygon","representation_type":"derived_label_anchor","source_dataset_id":"spatial-dataset:inao-aires-geographiques-siqo-2026-08-24","source_feature_id":"carta-wine-region-pays-nantais"},"type":"Feature"},{"geometry":{"coordinates":[-0.155342,47.14914],"type":"Point"},"id":"carta-wine-region-saumur-wine-region","properties":{"bounds":[-0.35346,46.980488,0.079185,47.316716],"carta_entity_id":"place:saumur-wine-region","child_carta_entity_ids":["appellation:saumur","appellation:saumur-champigny"],"derivation":"representative_point_of_union_of_mapped_child_inao_geometries","feature_type":"wine_region_orientation","governance_status":"governed","human_reference_path":"atlas/countries/france/regions/saumur.md","name":"Saumur","representation_label":"CARTA wine-region orientation label; not a statutory polygon","representation_type":"derived_label_anchor","source_dataset_id":"spatial-dataset:inao-aires-geographiques-siqo-2026-08-24","source_feature_id":"carta-wine-region-saumur-wine-region"},"type":"Feature"},{"geometry":{"coordinates":[0.338743,47.170408],"type":"Point"},"id":"carta-wine-region-touraine-wine-region","properties":{"bounds":[0.075534,47.078203,1.728065,47.760972],"carta_entity_id":"place:touraine-wine-region","child_carta_entity_ids":["appellation:cheverny","appellation:chinon","appellation:cour-cheverny","appellation:montlouis-sur-loire","appellation:vouvray"],"derivation":"representative_point_of_union_of_mapped_child_inao_geometries","feature_type":"wine_region_orientation","governance_status":"governed","human_reference_path":"atlas/countries/france/regions/touraine.md","name":"Touraine","representation_label":"CARTA wine-region orientation label; not a statutory polygon","representation_type":"derived_label_anchor","source_dataset_id":"spatial-dataset:inao-aires-geographiques-siqo-2026-08-24","source_feature_id":"carta-wine-region-touraine-wine-region"},"type":"Feature"},{"geometry":{"coordinates":[0.499374,47.694026],"type":"Point"},"id":"carta-wine-region-vallee-du-loir","properties":{"bounds":[0.230243,47.548189,0.674889,47.839785],"carta_entity_id":"place:vallee-du-loir","child_carta_entity_ids":["appellation:coteaux-du-loir","appellation:jasnieres"],"derivation":"representative_point_of_union_of_mapped_child_inao_geometries","feature_type":"wine_region_orientation","governance_status":"governed","human_reference_path":"atlas/countries/france/regions/vallee-du-loir.md","name":"Vallée du Loir","representation_label":"CARTA wine-region orientation label; not a statutory polygon","representation_type":"derived_label_anchor","source_dataset_id":"spatial-dataset:inao-aires-geographiques-siqo-2026-08-24","source_feature_id":"carta-wine-region-vallee-du-loir"},"type":"Feature"}],"type":"FeatureCollection"}
