{"features":[{"geometry":{"coordinates":[4.685686,46.164198],"type":"Point"},"id":"beaujolais-producer-lapierre","properties":{"entity_id":"producer:domaine-marcel-lapierre","name":"Domaine Marcel Lapierre","place_label":"Villié-Morgon · 588 rue Rabelais","precision":"address","source_feature_id":"beaujolais-producer-lapierre"},"type":"Feature"},{"geometry":{"coordinates":[4.665175,46.156209],"type":"Point"},"id":"beaujolais-producer-foillard","properties":{"entity_id":"producer:jean-foillard","name":"Jean Foillard","place_label":"Villié-Morgon","precision":"municipality","source_feature_id":"beaujolais-producer-foillard"},"type":"Feature"},{"geometry":{"coordinates":[4.648847,46.102221],"type":"Point"},"id":"beaujolais-producer-thivin","properties":{"entity_id":"producer:chateau-thivin","name":"Château Thivin","place_label":"Odenas · 630 route du Mont Brouilly","precision":"address","source_feature_id":"beaujolais-producer-thivin"},"type":"Feature"},{"geometry":{"coordinates":[4.694129,46.184902],"type":"Point"},"id":"beaujolais-producer-grand-cour","properties":{"entity_id":"producer:domaine-de-la-grand-cour","name":"Domaine de la Grand’Cour","place_label":"Fleurie · 156 route de la Grand’Cour","precision":"address","source_feature_id":"beaujolais-producer-grand-cour"},"type":"Feature"},{"geometry":{"coordinates":[4.662205,45.894247],"type":"Point"},"id":"beaujolais-producer-terres-dorees","properties":{"entity_id":"producer:domaine-des-terres-dorees","name":"Domaine des Terres Dorées","place_label":"Charnay · 565 route d’Alix","precision":"address","source_feature_id":"beaujolais-producer-terres-dorees"},"type":"Feature"}],"type":"FeatureCollection"}
