{"features":[{"geometry":{"coordinates":[-1.384501,47.151276],"type":"Point"},"id":"loire-producer-landron","properties":{"entity_id":"producer:domaines-landron","name":"Domaines Landron","place_label":"La Haie-Fouassière · 3 impasse du Fief du Breil","precision":"address","source_feature_id":"loire-producer-landron"},"type":"Feature"},{"geometry":{"coordinates":[-0.642626,47.39036],"type":"Point"},"id":"loire-producer-coulee-serrant","properties":{"entity_id":"producer:coulee-de-serrant","name":"La Coulée de Serrant","place_label":"Savennières · chemin de la Roche aux Moines","precision":"locality","source_feature_id":"loire-producer-coulee-serrant"},"type":"Feature"},{"geometry":{"coordinates":[-0.066257,47.217369],"type":"Point"},"id":"loire-producer-clos-rougeard","properties":{"entity_id":"producer:clos-rougeard","name":"Clos Rougeard","place_label":"Chacé · 14 allée des Tilleuls","precision":"address","source_feature_id":"loire-producer-clos-rougeard"},"type":"Feature"},{"geometry":{"coordinates":[1.304553,47.502381],"type":"Point"},"id":"loire-producer-tue-boeuf","properties":{"entity_id":"producer:clos-du-tue-boeuf","name":"Clos du Tue-Boeuf","place_label":"Les Montils","precision":"municipality","source_feature_id":"loire-producer-tue-boeuf"},"type":"Feature"},{"geometry":{"coordinates":[2.952443,47.333403],"type":"Point"},"id":"loire-producer-bain","properties":{"entity_id":"producer:domaine-alexandre-bain","name":"Domaine Alexandre Bain","place_label":"Tracy-sur-Loire · Boisfleury","precision":"locality","source_feature_id":"loire-producer-bain"},"type":"Feature"},{"geometry":{"coordinates":[0.808359,47.413845],"type":"Point"},"id":"loire-producer-huet","properties":{"entity_id":"producer:domaine-huet","name":"Domaine Huet","place_label":"Vouvray · 11 rue de la Croix Buisée","precision":"address","source_feature_id":"loire-producer-huet"},"type":"Feature"},{"geometry":{"coordinates":[-0.508859,47.265996],"type":"Point"},"id":"loire-producer-leroy","properties":{"entity_id":"producer:richard-leroy","name":"Richard Leroy","place_label":"Rablay-sur-Layon route","precision":"locality","source_feature_id":"loire-producer-leroy"},"type":"Feature"},{"geometry":{"coordinates":[-0.640478,47.290743],"type":"Point"},"id":"loire-producer-mosse","properties":{"entity_id":"producer:domaine-mosse","name":"Domaine Mosse","place_label":"Saint-Lambert-du-Lattay","precision":"locality","source_feature_id":"loire-producer-mosse"},"type":"Feature"},{"geometry":{"coordinates":[-0.072311,47.214418],"type":"Point"},"id":"loire-producer-collier","properties":{"entity_id":"producer:domaine-du-collier","name":"Domaine du Collier","place_label":"Chacé","precision":"locality","source_feature_id":"loire-producer-collier"},"type":"Feature"},{"geometry":{"coordinates":[0.559879,47.758477],"type":"Point"},"id":"loire-producer-belliviere","properties":{"entity_id":"producer:domaine-de-belliviere","name":"Domaine de Bellivière","place_label":"Lhomme","precision":"municipality","source_feature_id":"loire-producer-belliviere"},"type":"Feature"}],"type":"FeatureCollection"}
