{"features":[{"geometry":{"coordinates":[-0.421065,43.267417],"type":"Point"},"id":"bearn-producer-camin-larredya","properties":{"entity_id":"producer:camin-larredya","name":"Camin Larredya","place_label":"Jurançon · Chapelle de Rousse","precision":"address","source_feature_id":"bearn-producer-camin-larredya"},"type":"Feature"},{"geometry":{"coordinates":[-0.614827,43.313922],"type":"Point"},"id":"bearn-producer-cauhape","properties":{"entity_id":"producer:domaine-cauhape","name":"Domaine Cauhapé","place_label":"Monein","precision":"approximate","source_feature_id":"bearn-producer-cauhape"},"type":"Feature"},{"geometry":{"coordinates":[-0.602504,43.3129],"type":"Point"},"id":"bearn-producer-clos-uroulat","properties":{"entity_id":"producer:clos-uroulat","name":"Clos Uroulat","place_label":"Monein · Quartier Trouilh","precision":"address","source_feature_id":"bearn-producer-clos-uroulat"},"type":"Feature"},{"geometry":{"coordinates":[-0.430003,43.29191],"type":"Point"},"id":"bearn-producer-souch","properties":{"entity_id":"producer:domaine-de-souch","name":"Domaine de Souch","place_label":"Laroin","precision":"address","source_feature_id":"bearn-producer-souch"},"type":"Feature"}],"type":"FeatureCollection"}
