{"features":[{"geometry":{"coordinates":[5.772711,46.901897],"type":"Point"},"id":"jura-producer-tournelle","properties":{"entity_id":"producer:domaine-de-la-tournelle","name":"Domaine de la Tournelle","place_label":"Arbois","precision":"address","source_feature_id":"jura-producer-tournelle"},"type":"Feature"},{"geometry":{"coordinates":[5.477513,46.588736],"type":"Point"},"id":"jura-producer-labet","properties":{"entity_id":"producer:domaine-labet","name":"Domaine Labet","place_label":"Rotalier","precision":"address","source_feature_id":"jura-producer-labet"},"type":"Feature"},{"geometry":{"coordinates":[5.761972,46.883327],"type":"Point"},"id":"jura-producer-overnoy","properties":{"entity_id":"producer:maison-pierre-overnoy","name":"Maison Pierre Overnoy / Emmanuel Houillon","place_label":"Pupillin","precision":"address","source_feature_id":"jura-producer-overnoy"},"type":"Feature"},{"geometry":{"coordinates":[5.681,46.9325],"type":"Point"},"id":"jura-producer-saint-pierre","properties":{"entity_id":"producer:domaine-de-saint-pierre-jura","name":"Domaine de Saint Pierre","place_label":"Mathenay","precision":"municipality","source_feature_id":"jura-producer-saint-pierre"},"type":"Feature"}],"type":"FeatureCollection"}
